[{"OBJECT_NAME":"ONEWEB-0642","OBJECT_ID":"2023-029L","EPOCH":"2026-01-28T19:44:49.891488","MEAN_MOTION":13.19726742,"ECCENTRICITY":9.715e-5,"INCLINATION":87.9234,"RA_OF_ASC_NODE":332.7194,"ARG_OF_PERICENTER":100.1318,"MEAN_ANOMALY":259.9925,"EPHEMERIS_TYPE":0,"CLASSIFICATION_TYPE":"U","NORAD_CAT_ID":55806,"ELEMENT_SET_NO":999,"REV_AT_EPOCH":14052,"BSTAR":-0.0001741851,"MEAN_MOTION_DOT":-5.7e-7,"MEAN_MOTION_DDOT":0},{"OBJECT_NAME":"ONEWEB-0643","OBJECT_ID":"2023-029M","EPOCH":"2026-01-28T20:21:54.402048","MEAN_MOTION":13.14501807,"ECCENTRICITY":0.00012379,"INCLINATION":87.9027,"RA_OF_ASC_NODE":317.5155,"ARG_OF_PERICENTER":98.5445,"MEAN_ANOMALY":261.5825,"EPHEMERIS_TYPE":0,"CLASSIFICATION_TYPE":"U","NORAD_CAT_ID":55807,"ELEMENT_SET_NO":999,"REV_AT_EPOCH":14108,"BSTAR":0.0002079216,"MEAN_MOTION_DOT":9.0e-7,"MEAN_MOTION_DDOT":0},{"OBJECT_NAME":"ONEWEB-0644","OBJECT_ID":"2023-029N","EPOCH":"2026-01-28T21:27:11.664000","MEAN_MOTION":13.19726138,"ECCENTRICITY":0.00014251,"INCLINATION":87.9238,"RA_OF_ASC_NODE":332.7132,"ARG_OF_PERICENTER":85.9837,"MEAN_ANOMALY":274.1459,"EPHEMERIS_TYPE":0,"CLASSIFICATION_TYPE":"U","NORAD_CAT_ID":55808,"ELEMENT_SET_NO":999,"REV_AT_EPOCH":14053,"BSTAR":5.8786921e-5,"MEAN_MOTION_DOT":3.6e-7,"MEAN_MOTION_DDOT":0},{"OBJECT_NAME":"ONEWEB-0645","OBJECT_ID":"2023-029P","EPOCH":"2026-01-28T20:09:50.263776","MEAN_MOTION":13.19727952,"ECCENTRICITY":0.0001215,"INCLINATION":87.9228,"RA_OF_ASC_NODE":332.7167,"ARG_OF_PERICENTER":71.348,"MEAN_ANOMALY":288.7785,"EPHEMERIS_TYPE":0,"CLASSIFICATION_TYPE":"U","NORAD_CAT_ID":55809,"ELEMENT_SET_NO":999,"REV_AT_EPOCH":14052,"BSTAR":-5.2049066e-5,"MEAN_MOTION_DOT":-8.0e-8,"MEAN_MOTION_DDOT":0},{"OBJECT_NAME":"ONEWEB-0646","OBJECT_ID":"2023-029Q","EPOCH":"2026-01-28T20:34:51.334176","MEAN_MOTION":13.19728298,"ECCENTRICITY":0.00014844,"INCLINATION":87.9245,"RA_OF_ASC_NODE":332.7091,"ARG_OF_PERICENTER":84.3022,"MEAN_ANOMALY":275.828,"EPHEMERIS_TYPE":0,"CLASSIFICATION_TYPE":"U","NORAD_CAT_ID":55810,"ELEMENT_SET_NO":999,"REV_AT_EPOCH":14051,"BSTAR":0.00025201786,"MEAN_MOTION_DOT":1.14e-6,"MEAN_MOTION_DDOT":0},{"OBJECT_NAME":"ONEWEB-0648","OBJECT_ID":"2023-029R","EPOCH":"2026-01-28T19:36:13.594464","MEAN_MOTION":13.14501994,"ECCENTRICITY":8.181e-5,"INCLINATION":87.9031,"RA_OF_ASC_NODE":317.4849,"ARG_OF_PERICENTER":58.8722,"MEAN_ANOMALY":301.2488,"EPHEMERIS_TYPE":0,"CLASSIFICATION_TYPE":"U","NORAD_CAT_ID":55811,"ELEMENT_SET_NO":999,"REV_AT_EPOCH":14108,"BSTAR":-0.00049141431,"MEAN_MOTION_DOT":-1.69e-6,"MEAN_MOTION_DDOT":0},{"OBJECT_NAME":"ONEWEB-0649","OBJECT_ID":"2023-029S","EPOCH":"2026-01-28T19:22:05.645856","MEAN_MOTION":13.19726537,"ECCENTRICITY":0.0001346,"INCLINATION":87.9244,"RA_OF_ASC_NODE":332.7162,"ARG_OF_PERICENTER":75.849,"MEAN_ANOMALY":284.2792,"EPHEMERIS_TYPE":0,"CLASSIFICATION_TYPE":"U","NORAD_CAT_ID":55812,"ELEMENT_SET_NO":999,"REV_AT_EPOCH":14054,"BSTAR":8.1025079e-5,"MEAN_MOTION_DOT":4.5e-7,"MEAN_MOTION_DDOT":0},{"OBJECT_NAME":"ONEWEB-0650","OBJECT_ID":"2023-029T","EPOCH":"2026-01-28T21:04:25.558176","MEAN_MOTION":13.1972818,"ECCENTRICITY":0.00013054,"INCLINATION":87.9242,"RA_OF_ASC_NODE":332.7062,"ARG_OF_PERICENTER":84.0838,"MEAN_ANOMALY":276.0444,"EPHEMERIS_TYPE":0,"CLASSIFICATION_TYPE":"U","NORAD_CAT_ID":55813,"ELEMENT_SET_NO":999,"REV_AT_EPOCH":14052,"BSTAR":0.00026332996,"MEAN_MOTION_DOT":1.18e-6,"MEAN_MOTION_DDOT":0},{"OBJECT_NAME":"ONEWEB-0652","OBJECT_ID":"2023-029U","EPOCH":"2026-01-28T17:19:14.522304","MEAN_MOTION":13.14502057,"ECCENTRICITY":0.00018985,"INCLINATION":87.9031,"RA_OF_ASC_NODE":317.5213,"ARG_OF_PERICENTER":75.8553,"MEAN_ANOMALY":284.2788,"EPHEMERIS_TYPE":0,"CLASSIFICATION_TYPE":"U","NORAD_CAT_ID":55814,"ELEMENT_SET_NO":999,"REV_AT_EPOCH":14104,"BSTAR":0.0003568436,"MEAN_MOTION_DOT":1.45e-6,"MEAN_MOTION_DDOT":0},{"OBJECT_NAME":"ONEWEB-0653","OBJECT_ID":"2023-029V","EPOCH":"2026-01-28T20:35:37.474368","MEAN_MOTION":13.14503021,"ECCENTRICITY":0.00018366,"INCLINATION":87.9024,"RA_OF_ASC_NODE":317.4845,"ARG_OF_PERICENTER":73.1452,"MEAN_ANOMALY":286.9879,"EPHEMERIS_TYPE":0,"CLASSIFICATION_TYPE":"U","NORAD_CAT_ID":55815,"ELEMENT_SET_NO":999,"REV_AT_EPOCH":14109,"BSTAR":0.00095676114,"MEAN_MOTION_DOT":3.68e-6,"MEAN_MOTION_DDOT":0},{"OBJECT_NAME":"ONEWEB-0654","OBJECT_ID":"2023-029W","EPOCH":"2026-01-28T20:28:46.052256","MEAN_MOTION":13.14502908,"ECCENTRICITY":0.00020852,"INCLINATION":87.9025,"RA_OF_ASC_NODE":317.4857,"ARG_OF_PERICENTER":75.6605,"MEAN_ANOMALY":284.4756,"EPHEMERIS_TYPE":0,"CLASSIFICATION_TYPE":"U","NORAD_CAT_ID":55816,"ELEMENT_SET_NO":999,"REV_AT_EPOCH":14111,"BSTAR":0.00073141149,"MEAN_MOTION_DOT":2.84e-6,"MEAN_MOTION_DDOT":0},{"OBJECT_NAME":"ONEWEB-0656","OBJECT_ID":"2023-029X","EPOCH":"2026-01-28T19:28:41.422656","MEAN_MOTION":13.20773739,"ECCENTRICITY":0.00020844,"INCLINATION":87.9229,"RA_OF_ASC_NODE":302.2394,"ARG_OF_PERICENTER":75.6275,"MEAN_ANOMALY":284.509,"EPHEMERIS_TYPE":0,"CLASSIFICATION_TYPE":"U","NORAD_CAT_ID":55817,"ELEMENT_SET_NO":999,"REV_AT_EPOCH":14275,"BSTAR":9.4902384e-5,"MEAN_MOTION_DOT":5.2e-7,"MEAN_MOTION_DDOT":0},{"OBJECT_NAME":"ONEWEB-0657","OBJECT_ID":"2023-029Y","EPOCH":"2026-01-28T20:57:37.052064","MEAN_MOTION":13.19725988,"ECCENTRICITY":0.00023155,"INCLINATION":87.9235,"RA_OF_ASC_NODE":332.7064,"ARG_OF_PERICENTER":94.0177,"MEAN_ANOMALY":266.1221,"EPHEMERIS_TYPE":0,"CLASSIFICATION_TYPE":"U","NORAD_CAT_ID":55818,"ELEMENT_SET_NO":999,"REV_AT_EPOCH":14053,"BSTAR":0.0001798853,"MEAN_MOTION_DOT":8.5e-7,"MEAN_MOTION_DDOT":0},{"OBJECT_NAME":"ONEWEB-0658","OBJECT_ID":"2023-029Z","EPOCH":"2026-01-28T20:50:47.961024","MEAN_MOTION":13.19726627,"ECCENTRICITY":0.00013322,"INCLINATION":87.9248,"RA_OF_ASC_NODE":332.6706,"ARG_OF_PERICENTER":96.5382,"MEAN_ANOMALY":263.5903,"EPHEMERIS_TYPE":0,"CLASSIFICATION_TYPE":"U","NORAD_CAT_ID":55819,"ELEMENT_SET_NO":999,"REV_AT_EPOCH":14054,"BSTAR":0.00017706138,"MEAN_MOTION_DOT":8.4e-7,"MEAN_MOTION_DDOT":0},{"OBJECT_NAME":"ONEWEB-0660","OBJECT_ID":"2023-029AA","EPOCH":"2026-01-28T19:56:47.891904","MEAN_MOTION":13.14504517,"ECCENTRICITY":0.00015492,"INCLINATION":87.9033,"RA_OF_ASC_NODE":317.4725,"ARG_OF_PERICENTER":69.1173,"MEAN_ANOMALY":291.0123,"EPHEMERIS_TYPE":0,"CLASSIFICATION_TYPE":"U","NORAD_CAT_ID":55820,"ELEMENT_SET_NO":999,"REV_AT_EPOCH":14109,"BSTAR":-0.000276421,"MEAN_MOTION_DOT":-9.0e-7,"MEAN_MOTION_DDOT":0},{"OBJECT_NAME":"ONEWEB-0661","OBJECT_ID":"2023-029AB","EPOCH":"2026-01-28T17:07:49.719360","MEAN_MOTION":13.1450403,"ECCENTRICITY":0.00016219,"INCLINATION":87.9028,"RA_OF_ASC_NODE":317.5565,"ARG_OF_PERICENTER":64.2409,"MEAN_ANOMALY":295.8888,"EPHEMERIS_TYPE":0,"CLASSIFICATION_TYPE":"U","NORAD_CAT_ID":55821,"ELEMENT_SET_NO":999,"REV_AT_EPOCH":14106,"BSTAR":0.00082990428,"MEAN_MOTION_DOT":3.2e-6,"MEAN_MOTION_DDOT":0},{"OBJECT_NAME":"ONEWEB-0662","OBJECT_ID":"2023-029AC","EPOCH":"2026-01-28T19:47:38.783616","MEAN_MOTION":13.14502071,"ECCENTRICITY":0.0001492,"INCLINATION":87.9024,"RA_OF_ASC_NODE":317.5413,"ARG_OF_PERICENTER":69.527,"MEAN_ANOMALY":290.602,"EPHEMERIS_TYPE":0,"CLASSIFICATION_TYPE":"U","NORAD_CAT_ID":55822,"ELEMENT_SET_NO":999,"REV_AT_EPOCH":14112,"BSTAR":-0.00057118216,"MEAN_MOTION_DOT":-1.99e-6,"MEAN_MOTION_DDOT":0}]
