ONEWEB-0642             
1 55806U 23029L   26028.82279967 -.00000057  00000+0 -17419-3 0  9996
2 55806  87.9234 332.7194 0000971 100.1318 259.9925 13.19726742140524
ONEWEB-0643             
1 55807U 23029M   26028.84854632  .00000090  00000+0  20792-3 0  9990
2 55807  87.9027 317.5155 0001237  98.5445 261.5825 13.14501807141088
ONEWEB-0644             
1 55808U 23029N   26028.89388500  .00000036  00000+0  58787-4 0  9998
2 55808  87.9238 332.7132 0001425  85.9837 274.1459 13.19726138140534
ONEWEB-0645             
1 55809U 23029P   26028.84016509 -.00000008  00000+0 -52049-4 0  9997
2 55809  87.9228 332.7167 0001215  71.3480 288.7785 13.19727952140529
ONEWEB-0646             
1 55810U 23029Q   26028.85753859  .00000114  00000+0  25202-3 0  9992
2 55810  87.9245 332.7091 0001484  84.3022 275.8280 13.19728298140510
ONEWEB-0648             
1 55811U 23029R   26028.81682401 -.00000169  00000+0 -49141-3 0  9993
2 55811  87.9031 317.4849 0000818  58.8722 301.2488 13.14501994141082
ONEWEB-0649             
1 55812U 23029S   26028.80700979  .00000045  00000+0  81025-4 0  9993
2 55812  87.9244 332.7162 0001346  75.8490 284.2792 13.19726537140540
ONEWEB-0650             
1 55813U 23029T   26028.87807359  .00000118  00000+0  26333-3 0  9992
2 55813  87.9242 332.7062 0001305  84.0838 276.0444 13.19728180140528
ONEWEB-0652             
1 55814U 23029U   26028.72169586  .00000145  00000+0  35684-3 0  9999
2 55814  87.9031 317.5213 0001898  75.8553 284.2788 13.14502057141041
ONEWEB-0653             
1 55815U 23029V   26028.85807262  .00000368  00000+0  95676-3 0  9998
2 55815  87.9024 317.4845 0001836  73.1452 286.9879 13.14503021141092
ONEWEB-0654             
1 55816U 23029W   26028.85331079  .00000284  00000+0  73141-3 0  9997
2 55816  87.9025 317.4857 0002085  75.6605 284.4756 13.14502908141114
ONEWEB-0656             
1 55817U 23029X   26028.81159054  .00000052  00000+0  94902-4 0  9997
2 55817  87.9229 302.2394 0002084  75.6275 284.5090 13.20773739142753
ONEWEB-0657             
1 55818U 23029Y   26028.87334551  .00000085  00000+0  17989-3 0  9996
2 55818  87.9235 332.7064 0002315  94.0177 266.1221 13.19725988140533
ONEWEB-0658             
1 55819U 23029Z   26028.86861066  .00000084  00000+0  17706-3 0  9998
2 55819  87.9248 332.6706 0001332  96.5382 263.5903 13.19726627140543
ONEWEB-0660             
1 55820U 23029AA  26028.83110986 -.00000090  00000+0 -27642-3 0  9994
2 55820  87.9033 317.4725 0001549  69.1173 291.0123 13.14504517141091
ONEWEB-0661             
1 55821U 23029AB  26028.71376990  .00000320  00000+0  82990-3 0  9992
2 55821  87.9028 317.5565 0001621  64.2409 295.8888 13.14504030141065
ONEWEB-0662             
1 55822U 23029AC  26028.82475444 -.00000199  00000+0 -57118-3 0  9999
2 55822  87.9024 317.5413 0001492  69.5270 290.6020 13.14502071141125
